FLOCK 2E'-19            
1 41777U 98067KP  17345.87361526  .00019632  00000-0  15914-3 0  9998
2 41777  51.6341 205.9716 0003551 206.8476 153.2339 15.70768229 70702
